{
 "generated_at": "2026-07-06T09:00:32Z",
 "sources": [
  {
   "name": "CelesTrak",
   "url": "https://celestrak.org/NORAD/elements/",
   "license": "frei verfügbar; Attribution. Ursprünglich USSPACECOM/Space-Track."
  },
  {
   "name": "GCAT (J. McDowell, planet4589.org)",
   "url": "https://planet4589.org/space/gcat/",
   "license": "CC-BY 4.0"
  }
 ],
 "satellites": [
  {
   "norad": 43226,
   "name": "GOES 17",
   "intl": "2018-022A",
   "group": "weather",
   "gcat": {
    "class": "C",
    "category": "MET",
    "owner": "NOAA",
    "state": "US"
   },
   "omm": {
    "OBJECT_NAME": "GOES 17",
    "OBJECT_ID": "2018-022A",
    "EPOCH": "2026-07-05T11:42:15.629760",
    "MEAN_MOTION": 1.00270863,
    "ECCENTRICITY": 0.0000699,
    "INCLINATION": 0.9807,
    "RA_OF_ASC_NODE": 85.4269,
    "ARG_OF_PERICENTER": 58.1013,
    "MEAN_ANOMALY": 226.0203,
    "EPHEMERIS_TYPE": 0,
    "CLASSIFICATION_TYPE": "U",
    "NORAD_CAT_ID": 43226,
    "ELEMENT_SET_NO": 999,
    "REV_AT_EPOCH": 3060,
    "BSTAR": 0,
    "MEAN_MOTION_DOT": -0.00000169,
    "MEAN_MOTION_DDOT": 0
   }
  },
  {
   "norad": 51850,
   "name": "GOES 18",
   "intl": "2022-021A",
   "group": "weather",
   "gcat": {
    "class": "C",
    "category": "MET",
    "owner": "NOAA",
    "state": "US"
   },
   "omm": {
    "OBJECT_NAME": "GOES 18",
    "OBJECT_ID": "2022-021A",
    "EPOCH": "2026-07-05T12:26:38.728320",
    "MEAN_MOTION": 1.00272074,
    "ECCENTRICITY": 0.0000573,
    "INCLINATION": 0.0358,
    "RA_OF_ASC_NODE": 224.8795,
    "ARG_OF_PERICENTER": 296.6336,
    "MEAN_ANOMALY": 171.6564,
    "EPHEMERIS_TYPE": 0,
    "CLASSIFICATION_TYPE": "U",
    "NORAD_CAT_ID": 51850,
    "ELEMENT_SET_NO": 999,
    "REV_AT_EPOCH": 677,
    "BSTAR": 0,
    "MEAN_MOTION_DOT": 0.0000011,
    "MEAN_MOTION_DDOT": 0
   }
  },
  {
   "norad": 60133,
   "name": "GOES 19",
   "intl": "2024-119A",
   "group": "weather",
   "gcat": {
    "class": "C",
    "category": "MET",
    "owner": "NOAA",
    "state": "US"
   },
   "omm": {
    "OBJECT_NAME": "GOES 19",
    "OBJECT_ID": "2024-119A",
    "EPOCH": "2026-07-05T13:28:42.678048",
    "MEAN_MOTION": 1.0027263,
    "ECCENTRICITY": 0.00004135,
    "INCLINATION": 0.0028,
    "RA_OF_ASC_NODE": 75.2601,
    "ARG_OF_PERICENTER": 90.4365,
    "MEAN_ANOMALY": 244.8406,
    "EPHEMERIS_TYPE": 0,
    "CLASSIFICATION_TYPE": "U",
    "NORAD_CAT_ID": 60133,
    "ELEMENT_SET_NO": 999,
    "REV_AT_EPOCH": 714,
    "BSTAR": 0,
    "MEAN_MOTION_DOT": -0.00000235,
    "MEAN_MOTION_DDOT": 0
   }
  },
  {
   "norad": 41875,
   "name": "GOKTURK 1A",
   "intl": "2016-073A",
   "group": "resource",
   "gcat": {
    "class": "D",
    "category": "IMG",
    "owner": "MSBTR",
    "state": "TR"
   },
   "omm": {
    "OBJECT_NAME": "GOKTURK 1A",
    "OBJECT_ID": "2016-073A",
    "EPOCH": "2026-07-05T15:30:43.210944",
    "MEAN_MOTION": 14.62788188,
    "ECCENTRICITY": 0.00013748,
    "INCLINATION": 98.1224,
    "RA_OF_ASC_NODE": 81.0294,
    "ARG_OF_PERICENTER": 79.6332,
    "MEAN_ANOMALY": 280.5024,
    "EPHEMERIS_TYPE": 0,
    "CLASSIFICATION_TYPE": "U",
    "NORAD_CAT_ID": 41875,
    "ELEMENT_SET_NO": 999,
    "REV_AT_EPOCH": 51152,
    "BSTAR": 0.000076989285,
    "MEAN_MOTION_DOT": 0.00000346,
    "MEAN_MOTION_DDOT": 0
   }
  },
  {
   "norad": 39030,
   "name": "GOKTURK 2",
   "intl": "2012-073A",
   "group": "resource",
   "gcat": {
    "class": "D",
    "category": "IMG",
    "owner": "MSBTR",
    "state": "TR"
   },
   "omm": {
    "OBJECT_NAME": "GOKTURK 2",
    "OBJECT_ID": "2012-073A",
    "EPOCH": "2026-07-05T14:14:50.247168",
    "MEAN_MOTION": 14.75563366,
    "ECCENTRICITY": 0.00009566,
    "INCLINATION": 97.6811,
    "RA_OF_ASC_NODE": 23.1014,
    "ARG_OF_PERICENTER": 70.2083,
    "MEAN_ANOMALY": 289.923,
    "EPHEMERIS_TYPE": 0,
    "CLASSIFICATION_TYPE": "U",
    "NORAD_CAT_ID": 39030,
    "ELEMENT_SET_NO": 999,
    "REV_AT_EPOCH": 72722,
    "BSTAR": 0.00014213727,
    "MEAN_MOTION_DOT": 0.00000921,
    "MEAN_MOTION_DDOT": 0
   }
  },
  {
   "norad": 33492,
   "name": "GOSAT (IBUKI)",
   "intl": "2009-002A",
   "group": "resource",
   "gcat": {
    "class": "C",
    "category": "EOSCI",
    "owner": "JAXA",
    "state": "J"
   },
   "omm": {
    "OBJECT_NAME": "GOSAT (IBUKI)",
    "OBJECT_ID": "2009-002A",
    "EPOCH": "2026-07-04T20:46:38.114688",
    "MEAN_MOTION": 14.67539504,
    "ECCENTRICITY": 0.0001144,
    "INCLINATION": 98.0908,
    "RA_OF_ASC_NODE": 296.7269,
    "ARG_OF_PERICENTER": 80.0109,
    "MEAN_ANOMALY": 280.1224,
    "EPHEMERIS_TYPE": 0,
    "CLASSIFICATION_TYPE": "U",
    "NORAD_CAT_ID": 33492,
    "ELEMENT_SET_NO": 999,
    "REV_AT_EPOCH": 93405,
    "BSTAR": 0.000040518,
    "MEAN_MOTION_DOT": 0.00000182,
    "MEAN_MOTION_DDOT": 0
   }
  },
  {
   "norad": 64694,
   "name": "GOSAT-GW (IBUKI GW)",
   "intl": "2025-141A",
   "group": "resource",
   "gcat": {
    "class": "C",
    "category": "EOSCI",
    "owner": "JAXA",
    "state": "J"
   },
   "omm": {
    "OBJECT_NAME": "GOSAT-GW (IBUKI GW)",
    "OBJECT_ID": "2025-141A",
    "EPOCH": "2026-07-05T14:22:45.931008",
    "MEAN_MOTION": 14.67552418,
    "ECCENTRICITY": 0.00014158,
    "INCLINATION": 98.0567,
    "RA_OF_ASC_NODE": 123.6171,
    "ARG_OF_PERICENTER": 83.6241,
    "MEAN_ANOMALY": 276.5125,
    "EPHEMERIS_TYPE": 0,
    "CLASSIFICATION_TYPE": "U",
    "NORAD_CAT_ID": 64694,
    "ELEMENT_SET_NO": 999,
    "REV_AT_EPOCH": 5454,
    "BSTAR": 0.0002242227,
    "MEAN_MOTION_DOT": 0.00001224,
    "MEAN_MOTION_DDOT": 0
   }
  },
  {
   "norad": 39574,
   "name": "GPM-CORE",
   "intl": "2014-009C",
   "group": "resource",
   "gcat": {
    "class": "C",
    "category": "EOSCI",
    "owner": "GSFC",
    "state": "US"
   },
   "omm": {
    "OBJECT_NAME": "GPM-CORE",
    "OBJECT_ID": "2014-009C",
    "EPOCH": "2026-07-05T08:04:46.253280",
    "MEAN_MOTION": 15.44964522,
    "ECCENTRICITY": 0.0011193,
    "INCLINATION": 64.9704,
    "RA_OF_ASC_NODE": 247.3265,
    "ARG_OF_PERICENTER": 258.7739,
    "MEAN_ANOMALY": 101.2144,
    "EPHEMERIS_TYPE": 0,
    "CLASSIFICATION_TYPE": "U",
    "NORAD_CAT_ID": 39574,
    "ELEMENT_SET_NO": 999,
    "REV_AT_EPOCH": 70061,
    "BSTAR": 0.00031581,
    "MEAN_MOTION_DOT": 0.00014766,
    "MEAN_MOTION_DDOT": 0
   }
  },
  {
   "norad": 37781,
   "name": "HAIYANG-2A",
   "intl": "2011-043A",
   "group": "resource",
   "gcat": {
    "class": null,
    "category": null,
    "owner": null,
    "state": null
   },
   "omm": {
    "OBJECT_NAME": "HAIYANG-2A",
    "OBJECT_ID": "2011-043A",
    "EPOCH": "2026-07-05T14:32:15.451296",
    "MEAN_MOTION": 13.73781198,
    "ECCENTRICITY": 0.00041566,
    "INCLINATION": 99.3397,
    "RA_OF_ASC_NODE": 188.8657,
    "ARG_OF_PERICENTER": 55.8659,
    "MEAN_ANOMALY": 304.2884,
    "EPHEMERIS_TYPE": 0,
    "CLASSIFICATION_TYPE": "U",
    "NORAD_CAT_ID": 37781,
    "ELEMENT_SET_NO": 999,
    "REV_AT_EPOCH": 74918,
    "BSTAR": 0.00016286881,
    "MEAN_MOTION_DOT": 0.00000109,
    "MEAN_MOTION_DDOT": 0
   }
  }
 ]
}
